[{"OBJECT_NAME":"PRAETORIAN SDA_616","OBJECT_ID":"2025-203Q","EPOCH":"2026-03-09T14:26:34.985184","MEAN_MOTION":13.83297626,"ECCENTRICITY":0.0006714,"INCLINATION":81.3034,"RA_OF_ASC_NODE":103.134,"ARG_OF_PERICENTER":111.2959,"MEAN_ANOMALY":248.8915,"EPHEMERIS_TYPE":0,"CLASSIFICATION_TYPE":"U","NORAD_CAT_ID":65579,"ELEMENT_SET_NO":999,"REV_AT_EPOCH":2491,"BSTAR":0.00014695,"MEAN_MOTION_DOT":1.73e-6,"MEAN_MOTION_DDOT":0},{"OBJECT_NAME":"SL-8 R\/B","OBJECT_ID":"1978-034B","EPOCH":"2026-03-09T22:56:36.589920","MEAN_MOTION":13.77741339,"ECCENTRICITY":0.00246364,"INCLINATION":82.9457,"RA_OF_ASC_NODE":19.1368,"ARG_OF_PERICENTER":268.0242,"MEAN_ANOMALY":162.9585,"EPHEMERIS_TYPE":0,"CLASSIFICATION_TYPE":"U","NORAD_CAT_ID":10777,"ELEMENT_SET_NO":999,"REV_AT_EPOCH":40923,"BSTAR":0.00012103792,"MEAN_MOTION_DOT":1.36e-6,"MEAN_MOTION_DDOT":0}]
